KUIPER-00089            
1 64834U 25151U   26013.70559662  .00002263  00000+0  32591-3 0  9996
2 64834  51.8991 168.7267 0001784 146.0135 214.0942 14.79921421 27378
KUIPER-00090            
1 64835U 25151V   26013.77330200  .00025375  00000+0  36163-2 0  9996
2 64835  51.8978 160.8870 0003991 161.0312 199.0798 14.76618752 27483
KUIPER-00091            
1 64836U 25151W   26013.70828859 -.00002889  00000+0 -34963-3 0  9996
2 64836  51.8993 166.2208 0007781 114.8711 245.3061 14.79938840 27402
KUIPER-00092            
1 64837U 25151X   26013.70022225  .00002046  00000+0  29753-3 0  9994
2 64837  51.8993 173.7545 0002938 107.8147 252.3136 14.79904798 28513
KUIPER-00093            
1 64838U 25151Y   26013.69751651  .00002056  00000+0  29851-3 0  9995
2 64838  51.8990 176.2518 0003140 111.9526 248.1770 14.79954300 27264
KUIPER-00094            
1 64839U 25151Z   26013.79649528  .00006063  00000+0  43869-3 0  9993
2 64839  51.8884 154.8659 0004653  90.8738 269.2768 15.05235411 27575
KUIPER-00081            
1 65132U 25171A   26013.41494233 -.00006554  00000+0 -83127-3 0  9990
2 65132  51.9019  32.4951 0001162  45.4013 314.7044 14.79943963 24852
KUIPER-00088            
1 65133U 25171B   26013.79149674  .00002811  00000+0  38347-3 0  9992
2 65133  51.9015  48.9346 0000977 137.0917 223.0123 14.81482452 24655
